0 SL-8 R/B
1 06966U 73098B   13282.34541311  .00000173  00000-0  60321-4 0   901
2 06966 074.0578 197.9012 0020982 155.5284 343.2877 14.42275282 91315
0 SL-8 R/B
1 06966U 73098B   13283.38184571  .00000167  00000-0  58417-4 0   914
2 06966 074.0578 195.9817 0020951 153.2768 324.7133 14.42275590 91461
0 SL-8 R/B
1 06966U 73098B   13286.16577688  .00000198  00000-0  67975-4 0   933
2 06966 074.0577 190.8258 0020883 147.1009 019.7401 14.42276267 91862
0 SL-8 R/B
1 06966U 73098B   13287.33962307  .00000232  00000-0  78035-4 0   948
2 06966 074.0576 188.6520 0020848 144.5130 354.6968 14.42276631 92039
0 SL-8 R/B
1 06966U 73098B   13288.37476198  .00000311  00000-0  10192-3 0   959
2 06966 074.0574 186.7350 0020824 142.2220 329.4546 14.42277585 92183
0 SL-8 R/B
1 06966U 73098B   13289.82179559  .00000243  00000-0  81497-4 0   963
2 06966 074.0571 184.0551 0020763 139.1669 282.7533 14.42278727 92397
0 SL-8 R/B
1 06966U 73098B   13291.15703260  .00000232  00000-0  78040-4 0   973
2 06966 074.0569 181.5823 0020719 136.2064 015.7267 14.42279445 92583
0 SL-8 R/B
1 06966U 73098B   13292.18837130  .00000218  00000-0  74019-4 0   988
2 06966 074.0567 179.6722 0020703 133.8850 330.8002 14.42279894 92739
0 SL-8 R/B
1 06966U 73098B   13293.36986765  .00000217  00000-0  73443-4 0   998
2 06966 074.0566 177.4839 0020686 131.2725 345.5022 14.42280591 92906
0 SL-8 R/B
1 06966U 73098B   13294.81278377  .00000230  00000-0  77622-4 0  1003
2 06966 074.0566 174.8115 0020689 128.0074 277.6558 14.42281549 93115
0 SL-8 R/B
1 06966U 73098B   13295.85868181  .00000229  00000-0  77138-4 0  1017
2 06966 074.0565 172.8744 0020646 125.7314 308.2576 14.42281915 93268
